CUBEBUG-2 (LO-74)       
1 39440U 13066AA  24366.58269841  .00014506  00000+0  15499-2 0  9995
2 39440  97.8344 306.7065 0065123 348.9371  11.0409 14.87312040597631
FUNCUBE-1 (AO-73)       
1 39444U 13066AE  24366.61945783  .00016918  00000+0  14080-2 0  9993
2 39444  97.7440 322.8371 0042431 200.3011 159.6526 14.98031380599604
UWE-3                   
1 39446U 13066AG  24366.82204350  .00013531  00000+0  13607-2 0  9998
2 39446  97.8065 313.1254 0054330 289.3921  70.1429 14.90232085598099
UNISAT-6                
1 40012U 14033C   24366.71095640  .00009150  00000+0  11033-2 0  9995
2 40012  97.7192 161.7820 0050136  20.8517 339.4727 14.83132651567082
DUCHIFAT-1              
1 40021U 14033M   24366.41814543  .00034985  00000+0  16974-2 0  9996
2 40021  98.0991   2.0657 0011499 138.7454 221.4649 15.18350900573938
QB50P1                  
1 40025U 14033R   24366.54027172  .00019968  00000+0  13736-2 0  9995
2 40025  98.0667 334.9370 0009878 232.4669 127.5660 15.05906920572516
XW-2C                   
1 40906U 15049H   24365.98391834  .00219446  00000+0  13553-2 0  9997
2 40906  97.4502  31.4021 0001910 336.0650  24.0526 15.76497982515056
LILACSAT-2              
1 40908U 15049K   25001.09359109  .00023838  00000+0  74031-3 0  9995
2 40908  97.5172  18.1207 0011371  21.0717 339.0991 15.33304033513743
FOX-1A (AO-85)          
1 40967U 15058D   25001.07932343  .00014613  00000+0  12524-2 0  9994
2 40967  64.7767 127.2080 0182443 244.7605 113.4498 14.85715402 34357
CAS-2T & KS-1Q          
1 41847U 16066G   24366.86620624  .00003684  00000+0  53926-3 0  9996
2 41847  98.4403  76.6670 0348117 301.4380  55.3208 14.42628708427984
ZHUHAI-1 02 (CAS-4B)    
1 42759U 17034B   24366.92086252  .00064317  00000+0  14129-2 0  9996
2 42759  43.0108 178.2206 0016558 259.9569  99.9420 15.43021913417780
ZHUHAI-1 01 (CAS-4A)    
1 42761U 17034D   24366.89777327  .00067275  00000+0  14604-2 0  9999
2 42761  43.0145 176.4452 0017526 267.0719  92.8133 15.43338831417794
RADFXSAT (FOX-1B)       
1 43017U 17073E   24366.44508261  .00022917  00000+0  12574-2 0  9995
2 43017  97.5474 235.4614 0189569 351.3192   8.4767 15.00027893385160
DIWATA-2B               
1 43678U 18084H   25001.11202648  .00004750  00000+0  41796-3 0  9996
2 43678  98.0873 171.4207 0009656  93.9238 266.3087 14.96985841336512
ES'HAIL 2               
1 43700U 18090A   24366.91369142  .00000165  00000+0  00000+0 0  9998
2 43700   0.0181  28.8987 0002384 296.8898 129.7570  1.00270398 22347
FOX-1CLIFF (AO-95)      
1 43770U 18099N   24366.61096727  .00020614  00000+0  11884-2 0  9993
2 43770  97.5187  60.7822 0013121  51.2838 308.9564 15.12334322332335
ITASAT                  
1 43786U 18099AE  24366.91444001  .00016733  00000+0  10470-2 0  9992
2 43786  97.4823  58.9532 0016338  40.6366 319.6079 15.09365872332347
JY1SAT (JO-97)          
1 43803U 18099AX  24366.41083520  .00021867  00000+0  11750-2 0  9998
2 43803  97.4932  61.3577 0008120 353.9136   6.1996 15.14885314332474
UWE-4                   
1 43880U 18111E   24366.48853797  .00030335  00000+0  14714-2 0  9999
2 43880  97.6005 271.7321 0016300  52.9018 307.3703 15.18329596327273
DUCHIFAT-3              
1 44854U 19089C   24366.88183096  .00055699  00000+0  18527-2 0  9994
2 44854  36.9504 277.8154 0012599 303.1274  56.8268 15.30078326278416
TIANYAN 01              
1 44881U 19093C   25001.16815310  .00003755  00000+0  44644-3 0  9994
2 44881  97.8111  80.0927 0014877  39.2118 321.0171 14.84923045272412
RS-44 & BREEZE-KM R/B   
1 44909U 19096E   24366.67458053  .00000024  00000+0  60283-4 0  9998
2 44909  82.5227 333.5412 0216674 309.7032  48.5140 12.79737481234230
SALSAT                  
1 46495U 20068K   24366.60716502  .00017341  00000+0  83756-3 0  9999
2 46495  97.8422 331.9139 0012824   5.2027 354.9337 15.18649024234210
LEDSAT                  
1 49069U 21073D   24366.67656906  .00058039  00000+0  14512-2 0  9996
2 49069  97.4135  78.0819 0013308 302.7865  57.2098 15.39837446186677
XW-3 (CAS-9)            
1 50466U 21131B   25001.15584841  .00002365  00000+0  75838-3 0  9992
2 50466  98.5192  91.3098 0003225 247.7520 112.3326 14.40406077158494
GREENCUBE               
1 53106U 22080B   24357.45145358 -.00000003  00000+0  00000+0 0  9995
2 53106  70.1377 127.1156 0008284  64.6124 295.5392  6.42557665 57362
CAS-5A (FO-118)         
1 54684U 22167C   25001.15895498  .00220702  00000+0  24133-2 0  9999
2 54684  97.6126 160.6295 0003899 174.4848 185.6453 15.62584008114810
STRATOSAT-TK 1 (RS52S)  
1 57167U 23091B   25001.09943274  .00054612  00000+0  21376-2 0  9995
2 57167  97.5819  60.9773 0012264 148.6354 211.5617 15.25551567 83584
UMKA 1 (RS40S)          
1 57172U 23091G   25001.11600624  .00015502  00000+0  89893-3 0  9997
2 57172  97.5842  57.4526 0015838 159.4191 200.7681 15.12155376 83352
CUBESX-HSE 3 (RS42S)    
1 57178U 23091N   25001.10494806  .00026090  00000+0  13688-2 0  9997
2 57178  97.5875  58.6461 0015719 151.8986 208.3098 15.15617682 83410
